<?xml version="1.0" encoding="utf-8" ?>
<kml xmlns="http://www.opengis.net/kml/2.2">
<Document id="root_doc">
<Schema name="area_estudio_demo" id="area_estudio_demo">
	<SimpleField name="nombre" type="string"></SimpleField>
</Schema>
<Folder><name>area_estudio_demo</name>
  <Placemark>
	<Style><LineStyle><color>ff0000ff</color></LineStyle><PolyStyle><fill>0</fill></PolyStyle></Style>
	<ExtendedData><SchemaData schemaUrl="#area_estudio_demo">
		<SimpleData name="nombre">AOI Demo - Las Bambas Ficticio</SimpleData>
	</SchemaData></ExtendedData>
      <Polygon><outerBoundaryIs><LinearRing><coordinates>-76.8,-12.04 -76.58,-12.04 -76.58,-11.9 -76.8,-11.9 -76.8,-12.04</coordinates></LinearRing></outerBoundaryIs></Polygon>
  </Placemark>
</Folder>
</Document></kml>
